[{"OBJECT_NAME":"STARLINK-31899","OBJECT_ID":"2024-097R","EPOCH":"2026-03-09T22:12:33.718464","MEAN_MOTION":15.2757838,"ECCENTRICITY":0.00014527,"INCLINATION":43.0034,"RA_OF_ASC_NODE":272.9595,"ARG_OF_PERICENTER":276.3659,"MEAN_ANOMALY":83.7027,"EPHEMERIS_TYPE":0,"CLASSIFICATION_TYPE":"U","NORAD_CAT_ID":59850,"ELEMENT_SET_NO":999,"REV_AT_EPOCH":10195,"BSTAR":-4.596282e-6,"MEAN_MOTION_DOT":-3.89e-6,"MEAN_MOTION_DDOT":0},{"OBJECT_NAME":"HERMES-2","OBJECT_ID":"2025-052AK","EPOCH":"2026-03-09T22:17:00.130272","MEAN_MOTION":15.28021069,"ECCENTRICITY":0.00063399,"INCLINATION":97.4004,"RA_OF_ASC_NODE":324.4926,"ARG_OF_PERICENTER":99.416,"MEAN_ANOMALY":260.7796,"EPHEMERIS_TYPE":0,"CLASSIFICATION_TYPE":"U","NORAD_CAT_ID":63243,"ELEMENT_SET_NO":999,"REV_AT_EPOCH":5485,"BSTAR":0.00034839454,"MEAN_MOTION_DOT":9.456e-5,"MEAN_MOTION_DDOT":0}]
